FIREFLY-1               
1 62701U 25009CW  26194.83951536  .00000782  00000+0  81134-4 0  9991
2 62701  97.7062 272.4167 0002513 229.6166 130.4834 14.92739506 81290
FIREFLY-2               
1 62704U 25009CZ  26194.81741645  .00000685  00000+0  71715-4 0  9996
2 62704  97.7019 272.1656 0006508   7.7122 352.4196 14.92733503 81298
FIREFLY-3               
1 62710U 25009DF  26194.79558933  .00000347  00000+0  38906-4 0  9996
2 62710  97.7053 272.4035 0004795  76.4331 283.7422 14.92798524 81302
