{"fetched_at":"2026-07-14T06:34:41.212Z","source":"https://celestrak.org/NORAD/elements/gp.php?NAME=FIREFLY&FORMAT=JSON","constellation":"pixxel","records":[{"OBJECT_NAME":"FIREFLY-1","OBJECT_ID":"2025-009CW","EPOCH":"2026-07-13T20:08:54.127104","CLASSIFICATION_TYPE":"U","MEAN_MOTION":14.92739506,"ECCENTRICITY":0.0002513,"INCLINATION":97.7062,"RA_OF_ASC_NODE":272.4167,"ARG_OF_PERICENTER":229.6166,"MEAN_ANOMALY":130.4834,"EPHEMERIS_TYPE":0,"NORAD_CAT_ID":62701,"ELEMENT_SET_NO":999,"REV_AT_EPOCH":8129,"BSTAR":0.000081134,"MEAN_MOTION_DOT":0.00000782,"MEAN_MOTION_DDOT":0},{"OBJECT_NAME":"FIREFLY-2","OBJECT_ID":"2025-009CZ","EPOCH":"2026-07-13T19:37:04.781280","CLASSIFICATION_TYPE":"U","MEAN_MOTION":14.92733503,"ECCENTRICITY":0.0006508,"INCLINATION":97.7019,"RA_OF_ASC_NODE":272.1656,"ARG_OF_PERICENTER":7.7122,"MEAN_ANOMALY":352.4196,"EPHEMERIS_TYPE":0,"NORAD_CAT_ID":62704,"ELEMENT_SET_NO":999,"REV_AT_EPOCH":8129,"BSTAR":0.000071715,"MEAN_MOTION_DOT":0.00000685,"MEAN_MOTION_DDOT":0},{"OBJECT_NAME":"FIREFLY-3","OBJECT_ID":"2025-009DF","EPOCH":"2026-07-13T19:05:38.918112","CLASSIFICATION_TYPE":"U","MEAN_MOTION":14.92798524,"ECCENTRICITY":0.0004795,"INCLINATION":97.7053,"RA_OF_ASC_NODE":272.4035,"ARG_OF_PERICENTER":76.4331,"MEAN_ANOMALY":283.7422,"EPHEMERIS_TYPE":0,"NORAD_CAT_ID":62710,"ELEMENT_SET_NO":999,"REV_AT_EPOCH":8130,"BSTAR":0.000038906,"MEAN_MOTION_DOT":0.00000347,"MEAN_MOTION_DDOT":0}]}
